[{"OBJECT_NAME":"UHETSAT","OBJECT_ID":"2023-185E","EPOCH":"2026-03-09T22:39:26.455680","MEAN_MOTION":15.29797662,"ECCENTRICITY":0.00118435,"INCLINATION":97.3584,"RA_OF_ASC_NODE":137.3576,"ARG_OF_PERICENTER":307.7346,"MEAN_ANOMALY":52.2821,"EPHEMERIS_TYPE":0,"CLASSIFICATION_TYPE":"U","NORAD_CAT_ID":58466,"ELEMENT_SET_NO":999,"REV_AT_EPOCH":12611,"BSTAR":0.00030513019,"MEAN_MOTION_DOT":8.749e-5,"MEAN_MOTION_DDOT":0},{"OBJECT_NAME":"STARLINK-35147","OBJECT_ID":"2025-210R","EPOCH":"2026-03-09T21:37:29.317728","MEAN_MOTION":15.3022131,"ECCENTRICITY":8.593e-5,"INCLINATION":53.1607,"RA_OF_ASC_NODE":306.0834,"ARG_OF_PERICENTER":122.8063,"MEAN_ANOMALY":237.3021,"EPHEMERIS_TYPE":0,"CLASSIFICATION_TYPE":"U","NORAD_CAT_ID":65637,"ELEMENT_SET_NO":999,"REV_AT_EPOCH":2776,"BSTAR":0.0011987182,"MEAN_MOTION_DOT":0.00035336,"MEAN_MOTION_DDOT":0}]
